IRIDIUM 112             
1 41925U 17003J   24346.42734155  .00000365  00000+0  12336-3 0  9993
2 41925  86.3948 319.2938 0002554  87.1997 272.9491 14.34218181414043
IRIDIUM 111             
1 41926U 17003K   24346.48442385  .00000291  00000+0  96719-4 0  9997
2 41926  86.3952 319.3284 0002199  84.0420 276.1026 14.34216937414032
IRIDIUM 113             
1 42803U 17039A   24346.53415847  .00000086  00000+0  23792-4 0  9993
2 42803  86.3998 193.1040 0002475  83.8814 276.2664 14.34217973391973
IRIDIUM 123             
1 42804U 17039B   24346.57562971  .00000451  00000+0  15399-3 0  9998
2 42804  86.3990 224.5284 0001810  78.2310 281.9089 14.34221323390748
IRIDIUM 120             
1 42805U 17039C   24346.59756037 -.00000669  00000+0 -24592-3 0  9997
2 42805  86.3990 192.9320 0001498  87.2533 272.8834 14.34212964391971
IRIDIUM 115             
1 42806U 17039D   24346.55178836  .00000793  00000+0  22977-3 0  9990
2 42806  86.4526 193.0022 0001937  74.7819 285.3596 14.43284151394553
IRIDIUM 118             
1 42807U 17039E   24346.39804813  .00000583  00000+0  20121-3 0  9990
2 42807  86.3989 224.6030 0002072  85.6412 274.5020 14.34220056390717
IRIDIUM 117             
1 42808U 17039F   24346.55660696  .00000209  00000+0  67516-4 0  9993
2 42808  86.3989 224.4997 0001840  76.9149 283.2252 14.34216849390764
